STARLINK-5724           
1 56427U 23061BF  24107.35295603  .00011470  00000+0  86240-3 0  9998
2 56427  43.0074 333.8891 0002399 249.0340 111.0245 15.02551434 52904
STARLINK-6238           
1 56428U 23061BG  24107.30967410  .00003656  00000+0  28552-3 0  9995
2 56428  43.0037 333.5809 0001657 265.4903  94.5750 15.02539031 52908
STARLINK-6264           
1 56429U 23061BH  24107.10691355  .00000845  00000+0  77587-4 0  9996
2 56429  43.0043 334.6369 0001570 269.9742  90.0921 15.02537811 52874
STARLINK-5990           
1 56448U 23064A   24107.38437202  .00001879  00000+0  16522-3 0  9998
2 56448  69.9988  90.0768 0002972 267.6950  92.3869 14.98338875 51541
STARLINK-5993           
1 56449U 23064B   24107.40508051  .00000631  00000+0  60707-4 0  9993
2 56449  69.9991  90.1489 0002900 265.7432  94.3396 14.98332851 51547
STARLINK-5970           
1 56450U 23064C   24107.38020025  .00000770  00000+0  72332-4 0  9993
2 56450  69.9991  90.0625 0002873 268.5007  91.5823 14.98332772 51544
STARLINK-5985           
1 56451U 23064D   24107.40091147  .00002388  00000+0  20792-3 0  9999
2 56451  69.9994  90.1347 0002638 256.4573 103.6292 14.98320294 51544
STARLINK-5986           
1 56452U 23064E   24107.32997044  .00000470  00000+0  47186-4 0  9999
2 56452  69.9995  90.2886 0002848 269.0519  91.0313 14.98333714 51532
STARLINK-5935           
1 56453U 23064F   24107.39255575  .00001535  00000+0  13638-3 0  9990
2 56453  69.9987  90.1052 0003090 267.3153  92.7652 14.98330664 51549
STARLINK-5959           
1 56454U 23064G   24107.37168991  .00005294  00000+0  45116-3 0  9996
2 56454  69.9992  90.0318 0002861 260.8183  99.2653 14.98331810 51543
STARLINK-5987           
1 56455U 23064H   24107.36751130  .00000742  00000+0  69977-4 0  9994
2 56455  69.9993  90.0169 0002921 270.6493  89.4331 14.98333042 51542
STARLINK-5995           
1 56456U 23064J   24107.38003535  .00001216  00000+0  10967-3 0  9997
2 56456  69.9992  90.0613 0002869 268.5775  91.5055 14.98335665 51546
STARLINK-5994           
1 56457U 23064K   24107.37185509  .00000740  00000+0  69784-4 0  9992
2 56457  69.9990  90.0319 0003049 271.8421  88.2389 14.98330162 51544
STARLINK-6050           
1 56458U 23064L   24107.38420881  .00000288  00000+0  31884-4 0  9996
2 56458  69.9992  90.0747 0002877 269.4544  90.6285 14.98335304 51544
STARLINK-6048           
1 56459U 23064M   24107.35098031  .00000941  00000+0  86625-4 0  9991
2 56459  69.9992  89.9589 0002983 269.4086  90.6731 14.98334266 51547
STARLINK-6047           
1 56460U 23064N   24107.36333935  .00002138  00000+0  18682-3 0  9996
2 56460  69.9990  90.0025 0003103 268.1522  91.9281 14.98345142 51540
STARLINK-6037           
1 56461U 23064P   24107.34661269  .00003158  00000+0  27211-3 0  9990
2 56461  69.9987  89.9419 0003012 263.8747  96.2069 14.98366913 51542
STARLINK-6045           
1 56462U 23064Q   24107.57149395 -.00000760  00000+0 -55870-4 0  9998
2 56462  70.0009  49.3542 0003205 267.8693  92.2099 14.98335063 52560
STARLINK-6051           
1 56463U 23064R   24107.38838204  .00001801  00000+0  15872-3 0  9994
2 56463  69.9990  90.0820 0002884 267.2841  92.7987 14.98331789 51549
STARLINK-6043           
1 56464U 23064S   24107.35916398  .00002235  00000+0  19499-3 0  9994
2 56464  69.9991  89.9876 0002905 271.0144  89.0683 14.98348147 51540
STARLINK-6054           
1 56465U 23064T   24107.57566066 -.00000896  00000+0 -67329-4 0  9991
2 56465  70.0020  49.3661 0002635 273.5295  86.5563 14.98343630 52567
STARLINK-6053           
1 56466U 23064U   24107.35081442  .00000154  00000+0  20724-4 0  9991
2 56466  69.9990  89.9571 0002976 270.1355  89.9463 14.98334668 51543
STARLINK-6055           
1 56467U 23064V   24107.30471031  .00000774  00000+0  72615-4 0  9998
2 56467  69.9998  70.3283 0002834 269.7132  90.3703 14.98347459 52025
STARLINK-5998           
1 56468U 23064W   24107.34247005 -.00000063  00000+0  24945-5 0  9991
2 56468  69.9988  89.9262 0002895 267.5900  92.4928 14.98328942 51548
STARLINK-5518           
1 56469U 23064X   24107.31722788 -.00000081  00000+0  99205-6 0  9997
2 56469  70.0006  70.3787 0002687 253.3615 106.7249 14.98341989 52029
STARLINK-5523           
1 56470U 23064Y   24107.30887841  .00000733  00000+0  69214-4 0  9998
2 56470  70.0003  70.3447 0002659 264.8426  95.2430 14.98332297 52023
STARLINK-5521           
1 56471U 23064Z   24107.30052856  .00000830  00000+0  77351-4 0  9998
2 56471  70.0006  70.3158 0002621 259.3714 100.7150 14.98334767 52029
STARLINK-5038           
1 56472U 23064AA  24107.30069212  .00000469  00000+0  47122-4 0  9994
2 56472  69.9995  70.3151 0002909 266.9778  93.1048 14.98336685 52022
STARLINK-5486           
1 56473U 23064AB  24107.28800983 -.00000192  00000+0 -83038-5 0  9992
2 56473  70.0004  70.2719 0002769 264.8802  95.2041 14.98332490 52021
STARLINK-5524           
1 56474U 23064AC  24107.31305383  .00001747  00000+0  15415-3 0  9998
2 56474  70.0001  70.3584 0002669 264.4922  95.5933 14.98332133 52025
STARLINK-5541           
1 56475U 23064AD  24107.60944851  .00000017  00000+0  92157-5 0  9999
2 56475  70.0010  69.3858 0002853 263.4964  96.5870 14.98335065 52071
STARLINK-5545           
1 56476U 23064AE  24107.29635553  .00000184  00000+0  23221-4 0  9991
2 56476  70.0011  70.3013 0002504 246.6343 113.4553 14.98332364 52026
STARLINK-5534           
1 56477U 23064AF  24107.60527441  .00000049  00000+0  11902-4 0  9996
2 56477  70.0004  69.3719 0002691 270.4009  89.6842 14.98335777 52072
STARLINK-6041           
1 56478U 23064AG  24107.28383571  .00000117  00000+0  17638-4 0  9993
2 56478  70.0001  70.2559 0002756 264.3104  95.7741 14.98330683 52025
STARLINK-6044           
1 56479U 23064AH  24107.59258610  .00000228  00000+0  26883-4 0  9998
2 56479  70.0011  69.3258 0002286 271.5309  88.5588 14.98335980 52076
STARLINK-6214           
1 56480U 23064AJ  24107.29218292  .00000052  00000+0  12113-4 0  9995
2 56480  70.0004  70.2860 0002773 255.9501 104.1350 14.98331347 52021
STARLINK-6222           
1 56481U 23064AK  24107.60094152  .00004303  00000+0  36823-3 0  9994
2 56481  70.0002  69.3556 0003098 266.6984  93.3820 14.98328824 52078
STARLINK-6220           
1 56482U 23064AL  24107.61345863  .00000069  00000+0  13551-4 0  9993
2 56482  70.0000  69.3999 0002844 269.6956  90.3878 14.98334344 52072
STARLINK-5868           
1 56483U 23064AM  24107.60928714  .00000386  00000+0  40157-4 0  9999
2 56483  69.9999  69.3808 0003030 265.0842  94.9971 14.98331529 52074
STARLINK-6221           
1 56484U 23064AN  24107.60510669 -.00001057  00000+0 -80795-4 0  9996
2 56484  70.0007  69.3711 0002740 263.7910  96.2937 14.98341402 52077
STARLINK-6210           
1 56485U 23064AP  24107.58841240  .00000118  00000+0  17707-4 0  9994
2 56485  70.0010  69.3104 0002724 271.4331  88.6516 14.98334954 52075
STARLINK-6201           
1 56486U 23064AQ  24107.59675923 -.00001914  00000+0 -15257-3 0  9993
2 56486  70.0007  69.3421 0002724 266.3092  93.7755 14.98343909 52073
STARLINK-6196           
1 56487U 23064AR  24107.54247176 -.00000351  00000+0 -21619-4 0  9998
2 56487  70.0041  49.6847 0002112 279.8082  80.2838 14.98328969 52559
STARLINK-6204           
1 56488U 23064AS  24107.29211486  .00000707  00000+0  67017-4 0  9991
2 56488  70.0016  50.4143 0002814 262.4075  97.6764 14.98339881 52511
STARLINK-5923           
1 56489U 23064AT  24107.53394973  .00001021  00000+0  93274-4 0  9996
2 56489  70.0041  49.6525 0002152 287.7611  72.3313 14.98342104 52551
STARLINK-5873           
1 56490U 23064AU  24107.55482084  .00000412  00000+0  42339-4 0  9990
2 56490  70.0017  49.7282 0002822 264.8987  95.1850 14.98333905 52551
STARLINK-5842           
1 56491U 23064AV  24107.26274087  .00000298  00000+0  32752-4 0  9991
2 56491  70.0017  50.3122 0002354 272.0567  88.0323 14.98334424 52517
STARLINK-5846           
1 56492U 23064AW  24107.25855763  .00000995  00000+0  91168-4 0  9997
2 56492  70.0017  50.2973 0002631 265.9967  94.0892 14.98340711 52518
STARLINK-5841           
1 56493U 23064AX  24107.20841564  .00000829  00000+0  77238-4 0  9995
2 56493  70.0030  30.2418 0002472 267.7684  92.3192 14.98334555 53003
STARLINK-5530           
1 56494U 23064AY  24107.25873069  .00000195  00000+0  24141-4 0  9997
2 56494  70.0027  50.2985 0002353 268.0966  91.9923 14.98332789 52515
STARLINK-5529           
1 56495U 23064AZ  24107.58401626  .00000266  00000+0  30115-4 0  9997
2 56495  70.0016  49.4274 0002857 268.1787  91.9045 14.98333461 52564
STARLINK-5526           
1 56496U 23064BA  24107.57983608 -.00000974  00000+0 -73841-4 0  9993
2 56496  70.0023  49.4126 0002868 275.4113  84.6719 14.98346523 52565
STARLINK-5527           
1 56497U 23064BB  24107.57583139  .00001954  00000+0  17147-3 0  9992
2 56497  70.0015  49.3962 0002643 274.3776  85.7081 14.98335517 52563
STARLINK-5522           
1 56498U 23064BC  24107.58820179 -.00002600  00000+0 -21018-3 0  9995
2 56498  70.0008  49.4408 0002937 270.4078  89.6744 14.98327607 52560
STARLINK-5775           
1 56503U 23065A   24107.21145464  .00001113  00000+0  97486-4 0  9999
2 56503  43.0064  13.4578 0001358 254.0895 105.9798 15.02533833 52454
STARLINK-5716           
1 56504U 23065B   24107.14163785 -.00004310  00000+0 -30421-3 0  9997
2 56504  43.0053  13.7904 0002095 243.8137 116.2490 15.02526077 52448
STARLINK-5763           
1 56505U 23065C   24107.07294003  .00000966  00000+0  86580-4 0  9997
2 56505  43.0050  14.1355 0001378 253.6484 106.4206 15.02545686 52430
STARLINK-5340           
1 56506U 23065D   24107.41331888  .00010022  00000+0  75489-3 0  9998
2 56506  43.0043 359.3771 0001599 263.5619  96.5042 15.02586862 52634
STARLINK-5333           
1 56507U 23065E   24107.34406006  .00001804  00000+0  14854-3 0  9993
2 56507  43.0047 333.6937 0001187 280.5652  79.5056 15.02546832 52928
